{
  "links" : {
    "next" : "https://api.nasa.gov/neo/rest/v1/feed?start_date=2002-10-16&end_date=2002-10-16&detailed=true&api_key=t0TVs3DtDT2H8Oy2Zy8m2eVrNsAVKAexjcZXUckd",
    "prev" : "https://api.nasa.gov/neo/rest/v1/feed?start_date=2002-10-14&end_date=2002-10-14&detailed=true&api_key=t0TVs3DtDT2H8Oy2Zy8m2eVrNsAVKAexjcZXUckd",
    "self" : "https://api.nasa.gov/neo/rest/v1/feed?start_date=2002-10-15&end_date=2002-10-15&detailed=true&api_key=t0TVs3DtDT2H8Oy2Zy8m2eVrNsAVKAexjcZXUckd"
  },
  "element_count" : 4,
  "near_earth_objects" : {
    "2002-10-15" : [ {
      "links" : {
        "self" : "https://api.nasa.gov/neo/rest/v1/neo/3180147?api_key=t0TVs3DtDT2H8Oy2Zy8m2eVrNsAVKAexjcZXUckd"
      },
      "neo_reference_id" : "3180147",
      "name" : "(2004 HQ1)",
      "nasa_jpl_url" : "http://ssd.jpl.nasa.gov/sbdb.cgi?sstr=3180147",
      "absolute_magnitude_h" : 23.1,
      "estimated_diameter" : {
        "kilometers" : {
          "estimated_diameter_min" : 0.063760979,
          "estimated_diameter_max" : 0.1425738833
        },
        "meters" : {
          "estimated_diameter_min" : 63.7609789875,
          "estimated_diameter_max" : 142.5738833281
        },
        "miles" : {
          "estimated_diameter_min" : 0.0396192233,
          "estimated_diameter_max" : 0.0885912765
        },
        "feet" : {
          "estimated_diameter_min" : 209.1895703015,
          "estimated_diameter_max" : 467.7620993781
        }
      },
      "is_potentially_hazardous_asteroid" : false,
      "close_approach_data" : [ {
        "close_approach_date" : "2002-10-15",
        "epoch_date_close_approach" : 1034665200000,
        "relative_velocity" : {
          "kilometers_per_second" : "17.707173326",
          "kilometers_per_hour" : "63745.823973488",
          "miles_per_hour" : "39609.1760128598"
        },
        "miss_distance" : {
          "astronomical" : "0.3376192309",
          "lunar" : "131.3338928223",
          "kilometers" : "50507120",
          "miles" : "31383670"
        },
        "orbiting_body" : "Earth"
      } ],
      "orbital_data" : {
        "orbit_id" : "17",
        "orbit_determination_date" : "2017-04-06 09:12:54",
        "orbit_uncertainty" : "6",
        "minimum_orbit_intersection" : ".00255923",
        "jupiter_tisserand_invariant" : "5.577",
        "epoch_osculation" : "2458000.5",
        "eccentricity" : ".2705547835802962",
        "semi_major_axis" : "1.10936874092152",
        "inclination" : "4.418289253793989",
        "ascending_node_longitude" : "29.49570691861017",
        "orbital_period" : "426.7881117080258",
        "perihelion_distance" : ".8092237213107528",
        "perihelion_argument" : "93.39419971740091",
        "aphelion_distance" : "1.409513760532288",
        "perihelion_time" : "2458172.237361779364",
        "mean_anomaly" : "215.1378341042756",
        "mean_motion" : ".8435099060263495",
        "equinox" : "J2000"
      }
    }, {
      "links" : {
        "self" : "https://api.nasa.gov/neo/rest/v1/neo/3354740?api_key=t0TVs3DtDT2H8Oy2Zy8m2eVrNsAVKAexjcZXUckd"
      },
      "neo_reference_id" : "3354740",
      "name" : "(2006 UL185)",
      "nasa_jpl_url" : "http://ssd.jpl.nasa.gov/sbdb.cgi?sstr=3354740",
      "absolute_magnitude_h" : 21.2,
      "estimated_diameter" : {
        "kilometers" : {
          "estimated_diameter_min" : 0.1529519353,
          "estimated_diameter_max" : 0.3420109247
        },
        "meters" : {
          "estimated_diameter_min" : 152.9519353442,
          "estimated_diameter_max" : 342.0109247198
        },
        "miles" : {
          "estimated_diameter_min" : 0.095039897,
          "estimated_diameter_max" : 0.2125156703
        },
        "feet" : {
          "estimated_diameter_min" : 501.8108275547,
          "estimated_diameter_max" : 1122.0831222578
        }
      },
      "is_potentially_hazardous_asteroid" : false,
      "close_approach_data" : [ {
        "close_approach_date" : "2002-10-15",
        "epoch_date_close_approach" : 1034665200000,
        "relative_velocity" : {
          "kilometers_per_second" : "26.2428191308",
          "kilometers_per_hour" : "94474.1488710474",
          "miles_per_hour" : "58702.5621137905"
        },
        "miss_distance" : {
          "astronomical" : "0.4260845821",
          "lunar" : "165.7469024658",
          "kilometers" : "63741348",
          "miles" : "39607036"
        },
        "orbiting_body" : "Earth"
      } ],
      "orbital_data" : {
        "orbit_id" : "20",
        "orbit_determination_date" : "2017-04-06 09:07:45",
        "orbit_uncertainty" : "1",
        "minimum_orbit_intersection" : ".203793",
        "jupiter_tisserand_invariant" : "6.822",
        "epoch_osculation" : "2458000.5",
        "eccentricity" : ".5018795991076195",
        "semi_major_axis" : ".8440307778414696",
        "inclination" : "19.43556818077484",
        "ascending_node_longitude" : "52.30582221783192",
        "orbital_period" : "283.2277826029085",
        "perihelion_distance" : ".4204289494239006",
        "perihelion_argument" : "177.3013991822681",
        "aphelion_distance" : "1.267632606259039",
        "perihelion_time" : "2457885.924573962349",
        "mean_anomaly" : "145.6324411203109",
        "mean_motion" : "1.2710617464556",
        "equinox" : "J2000"
      }
    }, {
      "links" : {
        "self" : "https://api.nasa.gov/neo/rest/v1/neo/3548887?api_key=t0TVs3DtDT2H8Oy2Zy8m2eVrNsAVKAexjcZXUckd"
      },
      "neo_reference_id" : "3548887",
      "name" : "(2010 TE55)",
      "nasa_jpl_url" : "http://ssd.jpl.nasa.gov/sbdb.cgi?sstr=3548887",
      "absolute_magnitude_h" : 28.0,
      "estimated_diameter" : {
        "kilometers" : {
          "estimated_diameter_min" : 0.0066765941,
          "estimated_diameter_max" : 0.0149293183
        },
        "meters" : {
          "estimated_diameter_min" : 6.676594135,
          "estimated_diameter_max" : 14.9293183439
        },
        "miles" : {
          "estimated_diameter_min" : 0.004148642,
          "estimated_diameter_max" : 0.0092766455
        },
        "feet" : {
          "estimated_diameter_min" : 21.9048371017,
          "estimated_diameter_max" : 48.9807047955
        }
      },
      "is_potentially_hazardous_asteroid" : false,
      "close_approach_data" : [ {
        "close_approach_date" : "2002-10-15",
        "epoch_date_close_approach" : 1034665200000,
        "relative_velocity" : {
          "kilometers_per_second" : "10.9329088235",
          "kilometers_per_hour" : "39358.4717645845",
          "miles_per_hour" : "24455.8237472775"
        },
        "miss_distance" : {
          "astronomical" : "0.2581891475",
          "lunar" : "100.4355773926",
          "kilometers" : "38624548",
          "miles" : "24000180"
        },
        "orbiting_body" : "Earth"
      } ],
      "orbital_data" : {
        "orbit_id" : "13",
        "orbit_determination_date" : "2017-04-06 08:56:18",
        "orbit_uncertainty" : "4",
        "minimum_orbit_intersection" : ".00193815",
        "jupiter_tisserand_invariant" : "6.328",
        "epoch_osculation" : "2458000.5",
        "eccentricity" : ".127339995807201",
        "semi_major_axis" : ".9494155716792541",
        "inclination" : "1.154579117801091",
        "ascending_node_longitude" : "198.1029365066751",
        "orbital_period" : "337.8959236738614",
        "perihelion_distance" : ".8285169967623265",
        "perihelion_argument" : "305.0126076763744",
        "aphelion_distance" : "1.070314146596182",
        "perihelion_time" : "2457951.490608186643",
        "mean_anomaly" : "52.21543030462242",
        "mean_motion" : "1.065416818545208",
        "equinox" : "J2000"
      }
    }, {
      "links" : {
        "self" : "https://api.nasa.gov/neo/rest/v1/neo/3549618?api_key=t0TVs3DtDT2H8Oy2Zy8m2eVrNsAVKAexjcZXUckd"
      },
      "neo_reference_id" : "3549618",
      "name" : "(2010 UD)",
      "nasa_jpl_url" : "http://ssd.jpl.nasa.gov/sbdb.cgi?sstr=3549618",
      "absolute_magnitude_h" : 21.0,
      "estimated_diameter" : {
        "kilometers" : {
          "estimated_diameter_min" : 0.1677084622,
          "estimated_diameter_max" : 0.3750075218
        },
        "meters" : {
          "estimated_diameter_min" : 167.7084621628,
          "estimated_diameter_max" : 375.0075217981
        },
        "miles" : {
          "estimated_diameter_min" : 0.1042091748,
          "estimated_diameter_max" : 0.2330187988
        },
        "feet" : {
          "estimated_diameter_min" : 550.2246310023,
          "estimated_diameter_max" : 1230.3396778159
        }
      },
      "is_potentially_hazardous_asteroid" : true,
      "close_approach_data" : [ {
        "close_approach_date" : "2002-10-15",
        "epoch_date_close_approach" : 1034665200000,
        "relative_velocity" : {
          "kilometers_per_second" : "13.2426247411",
          "kilometers_per_hour" : "47673.4490679298",
          "miles_per_hour" : "29622.4272833478"
        },
        "miss_distance" : {
          "astronomical" : "0.3299578626",
          "lunar" : "128.3536071777",
          "kilometers" : "49360996",
          "miles" : "30671500"
        },
        "orbiting_body" : "Earth"
      } ],
      "orbital_data" : {
        "orbit_id" : "31",
        "orbit_determination_date" : "2017-04-16 06:14:05",
        "orbit_uncertainty" : "0",
        "minimum_orbit_intersection" : ".0132848",
        "jupiter_tisserand_invariant" : "5.534",
        "epoch_osculation" : "2458000.5",
        "eccentricity" : ".2639759376057816",
        "semi_major_axis" : "1.09779816223086",
        "inclination" : "26.28911314058858",
        "ascending_node_longitude" : "23.76340270307534",
        "orbital_period" : "420.1285314271053",
        "perihelion_distance" : ".8080058630540645",
        "perihelion_argument" : "262.2292654422288",
        "aphelion_distance" : "1.387590461407655",
        "perihelion_time" : "2457927.852821790671",
        "mean_anomaly" : "62.24995971237964",
        "mean_motion" : ".8568806283570913",
        "equinox" : "J2000"
      }
    } ]
  }
}